KUIPER-00016            
1 63732U 25088J   25236.38823013  .00000886  00000+0  14589-3 0  9991
2 63732  51.8988 264.0624 0011155 136.6195 223.5647 14.79817856 18116
KUIPER-00018            
1 63733U 25088K   25236.53709421 -.00002808  00000+0 -15150-3 0  9998
2 63733  51.8797 254.3620 0010721 143.0105 217.1611 15.10241939 18269
KUIPER-00019            
1 63734U 25088L   25236.91668981 -.00001992  00000+0 -10883-3 0  9997
2 63734  51.8789 251.4004 0008470 164.9511 334.6920 15.08136314  5313
KUIPER-00020            
1 63735U 25088M   25236.91668981 -.00017790  00000+0 -14290-2 0  9996
2 63735  51.8896 254.0966 0007589 153.6540   9.2784 14.99118638  3056
KUIPER-00021            
1 63736U 25088N   25236.91668981 -.00024923  00000+0 -21238-2 0  9993
2 63736  51.8850 254.9641 0005725 145.3370  39.7545 14.97062228  4409
KUIPER-00023            
1 63737U 25088P   25236.91668981  .00020232  00000+0  19121-2 0  9999
2 63737  51.8908 256.1778 0009331 150.1807 173.7583 14.93636480  5679
KUIPER-00024            
1 63738U 25088Q   25236.91668981  .00020565  00000+0  93631-3 0  9998
2 63738  51.8787 248.2698 0001769 148.4344  29.2753 15.20657273  5769
KUIPER-00025            
1 63739U 25088R   25236.91668981 -.00026873  00000+0 -19520-2 0  9993
2 63739  51.8860 252.8572 0011250 135.7186 271.0842 15.03136427  5662
